#dP2024 11 19  6  0  0.00000000      96 __u+U IGS20 EXT  IAC
## 2341 194400.00000000   900.00000000 60633 0.2500000000000
+   51   G02G03G04G05G06G07G08G09G10G11G12G13G14G15G16G17G18
+        G19G20G21G22G23G24G25G26G27G28G29G30G31G32R01R03R04
+        R05R07R08R09R11R12R14R15R16R17R18R19R20R21R22R24R26
+          0  0  0  0  0  0  0  0  0  0  0  0  0  0  0  0  0
+          0  0  0  0  0  0  0  0  0  0  0  0  0  0  0  0  0
++         8  8  7  7  7  8  7  7  7  7  8  7  8  7  9  8  7
++         7  7  8  8  8  7  8  8  8  7  8  7  8  8  9  8  9
++         9  7  8  8  8  9  8  7  9  8  8  7  8  9  7 10  8
++         0  0  0  0  0  0  0  0  0  0  0  0  0  0  0  0  0
++         0  0  0  0  0  0  0  0  0  0  0  0  0  0  0  0  0
%c M  cc GPS ccc cccc cccc cccc cccc ccccc ccccc ccccc ccccc
%c cc cc ccc ccc cccc cccc cccc cccc ccccc ccccc ccccc ccccc
%f  0.0000000  0.000000000  0.00000000000  0.000000000000000
%f  0.0000000  0.000000000  0.00000000000  0.000000000000000
%i    0    0    0    0      0      0      0      0         0
%i    0    0    0    0      0      0      0      0         0
/* IAC                                ULTRA-RAPID PREDICTION
/* S/V CLOCKS ARE ALIGNED TO GNSS TIME                      
/* G:C1WC2W R:C1PC2P E:C1XC5X C:C2IC6I J:C1CC2S             
/* PCV:IGS20_2317 OL/AL:FES2004  NONE     YN ORB:CoN CLK:CoN
*  2024 11 19  8  0  0.00000000
PG02   5447.166532  14030.250695 -21436.560474   -311.221563
PG03  12045.566819  23122.770444  -5531.114230    603.766607
PG04   2857.359325  20397.648912  16699.186362    481.983965
PG05   -133.053252 -19524.667519  17798.744915   -193.456942
PG06  25543.857169  -5560.926035   5106.547457   -126.072222
PG07  21170.618525   8315.717063  14610.303524    -19.313423
PG08  -4766.161667  24995.230537  -6875.808648    417.476756
PG09  10616.585907  12436.845308  20822.017242    450.332393
PG10 -17773.046105  -2717.152104 -19443.993842   -201.495642
PG11  16701.876899 -12386.216802  16525.724251   -750.656726
PG12  -7355.401019 -23930.908180  -9216.318664   -553.045945
PG13  13514.506029 -22699.119441  -1020.087771    686.633120
PG14  19376.711803   6255.464788 -17129.490715    542.908392
PG15   1060.316469 -25495.160514  -7605.976676    229.547281
PG16  -6326.073492  16133.109065  19648.075721   -124.590651
PG17  17332.367180  -4458.455958 -19272.159280    552.940925
PG18 -22597.507763  -6638.309510  12530.256466   -660.467417
PG19  18468.934529 -13243.705638 -13520.933541    564.471764
PG20   9651.190985 -11983.780977  21733.076729    368.608903
PG21  -1035.973079  15294.437118 -21172.798847     97.097499
PG22  15845.786664  -1810.211482 -20791.637726    -80.512891
PG23 -19748.744636 -14906.080596  -9925.152535    366.324207
PG24  -3382.221828 -15659.606327 -21647.670471   -479.378035
PG25 -17432.195214 -20013.227283   2601.870530    498.891940
PG26 -14688.906357   6831.833807  20916.779785     21.070512
PG27 -12504.768923  22881.175608   3326.545781    -34.674490
PG28 -25878.476584   5364.051857   2658.546369   -483.496851
PG29  -8848.723207 -13764.016331  20854.088915   -562.655763
PG30  26386.849476    372.863946   4250.857621   -278.880496
PG31 -21063.187930  10524.589089  12397.457770   -221.499013
PG32 -17280.142646   7928.381158 -18241.380687   -571.643099
PR01 -10240.459165  10374.007180 -20937.065871    104.922177
PR03   2834.514273  23608.605472   9185.856104    111.666992
PR04   8977.992047  11045.133576  21186.644809    264.662550
PR05  10698.087979  -7420.146463  21947.999830    140.930302
PR07  -2932.078514 -23527.335171  -9450.955974     95.279516
PR08  -9206.394085 -10798.113096 -21152.093877     -6.235143
PR09   3708.970750 -10940.294320 -22720.185230    221.402452
PR11 -21410.728712 -13848.626764     11.295126      6.597441
PR12 -18298.699929  -1834.380063  17703.344703     47.415256
PR14  12540.487383  16589.828828  14792.689387     27.259281
PR15  21737.898989  13233.217542  -1772.202804     73.971908
PR16  18355.328940   2031.585423 -17607.493204     30.920130
PR17   1729.300481  10912.589946 -22977.920808    141.189839
PR18  16751.765695   1681.614644 -19156.523679    172.622256
PR19  23487.295184  -6616.857731  -7407.469850   -298.972729
PR20  16601.248447 -13835.891417  13595.449472   -122.088301
PR21   -637.571903 -11246.940998  22890.206316   -152.547634
PR22 -17677.803239  -1640.388789  18344.731801    -14.785873
PR24 -15423.572144  14889.116116 -13815.901678    -80.714488
PR26  -8829.556666 -12435.607975 -20424.774578   -133.418346
*  2024 11 19  8 15  0.00000000
PG02   2950.194785  14585.241804 -21520.942748   -311.213846
PG03  11452.766896  22611.377869  -8288.003337    603.775533
PG04   1959.538144  21966.324141  14705.901307    481.989744
PG05   1359.906915 -17964.833570  19316.119791   -193.458016
PG06  25969.829591  -5448.474997   2242.115598   -126.098729
PG07  19522.231491   8702.857140  16578.743584    -19.311535
PG08  -5268.950502  25475.789452  -4109.278146    417.485824
PG09   9698.214316  14599.409875  19841.687331    450.347756
PG10 -19025.883149  -4482.780857 -17917.962128   -201.508760
PG11  18480.977297 -12372.803763  14509.164978   -750.658056
PG12  -6533.121629 -23086.771127 -11722.015115   -553.048229
PG13  13685.184972 -22512.729023   1872.123985    686.634519
PG14  20334.242361   7858.548318 -15284.506246    542.915597
PG15   1515.689095 -26068.594833  -4912.147893    229.551333
PG16  -7715.867952  14188.895303  20649.877089   -124.581891
PG17  16401.926291  -2302.220485 -20390.477439    552.927673
PG18 -21078.567707  -6973.030659  14777.732989   -660.467699
PG19  17862.223614 -11682.419909 -15667.805454    564.475723
PG20  11481.040077 -10326.844256  21681.074479    368.608588
PG21  -3480.680857  15753.265661 -20481.225460     97.096643
PG22  17063.375238    277.523126 -19875.070241    -80.515449
PG23 -20243.083463 -15768.306933  -7268.834458    366.331315
PG24  -1058.551678 -16181.916200 -21461.331558   -479.375975
PG25 -17333.265996 -20316.193404   -212.101997    498.891665
PG26 -16267.768280   5025.548629  20290.783424     21.058667
PG27 -12558.831023  22233.500905   6135.461945    -34.674378
PG28 -26061.398445   5137.072344   -192.924421   -483.507339
PG29  -7725.047513 -15814.009833  19812.291042   -562.653129
PG30  25811.976365    749.661316   6942.124963   -278.873456
PG31 -22382.801537  10457.237024   9985.237633   -221.498405
PG32 -16589.604948   5820.188887 -19626.666318   -571.638266
PR01 -10187.574280   7720.450325 -22078.099267    104.923381
PR03   2960.424966  24554.568786   6143.918890    111.667712
PR04   8962.399691  13564.576741  19672.418862    264.664144
PR05  10531.191836  -4665.753034  22769.376343    140.930861
PR07  -3061.562408 -24515.853318  -6430.597209     95.280193
PR08  -9206.464582 -13330.035098 -19663.078450     -6.235086
PR09   6153.365889  -9549.536182 -22823.400586    221.404397
PR11 -21316.101801 -13622.842912  -3193.694697      6.596647
PR12 -20092.553081  -2817.264560  15489.316363     47.415662
PR14  10897.544679  15510.263881  17087.028400     27.259329
PR15  21825.035415  13134.386601   1430.734954     73.971581
PR16  20153.010452   2990.959460 -15365.642015     30.920402
PR17   -727.678178  12260.824114 -22347.186119    141.192893
PR18  14507.077196   2721.430436 -20792.740634    172.624007
PR19  22406.427988  -6323.237085 -10403.726974   -298.973888
PR20  17882.755813 -14649.233556  10837.805782   -122.088506
PR21   1807.532185 -12568.674332  22124.507211   -152.550473
PR22 -15515.703306  -2604.669639  20108.087926    -14.796345
PR24 -16724.637413  15726.327549 -11117.800114    -80.715811
PR26  -8858.207124 -14857.804798 -18723.440080   -133.418104
EOF
